{"type": "FeatureCollection", "features": [{"type": "Feature", "properties": {"norad_id": 22490, "name": "SCD 1", "group": "resource", "lat": 24.812577688026103, "lon": 63.650620592076216, "alt_km": 757.6079690118468, "timestamp": "2025-12-04T21:36:15.530629+00:00", "meta": {"OBJECT_NAME": "SCD 1", "OBJECT_ID": "1993-009B", "EPOCH": "2025-12-04T08:32:53.323872", "MEAN_MOTION": 14.45989788, "ECCENTRICITY": 0.00417883, "INCLINATION": 24.9709, "RA_OF_ASC_NODE": 330.4385, "ARG_OF_PERICENTER": 235.8251, "MEAN_ANOMALY": 262.7821, "EPHEMERIS_TYPE": 0, "CLASSIFICATION_TYPE": "U", "NORAD_CAT_ID": 22490, "ELEMENT_SET_NO": 999, "REV_AT_EPOCH": 73288, "BSTAR": 0.00018125025, "MEAN_MOTION_DOT": 8.49e-06, "MEAN_MOTION_DDOT": 0}, "tle": {"line1": "1 22490U 93009B   25338.35617273  .00000849  00000+0  18125-3 0  9993", "line2": "2 22490  24.9709 330.4385 0041788 235.8251 262.7821 14.45989788732889"}}, "geometry": {"type": "Point", "coordinates": [63.650620592076216, 24.812577688026103]}}, {"type": "Feature", "properties": {"norad_id": 25397, "name": "TECHSAT 1B (GO-32)", "group": "resource", "lat": -47.00228453827547, "lon": -28.292078765261973, "alt_km": 818.0842787682141, "timestamp": "2025-12-04T21:36:15.530670+00:00", "meta": {"OBJECT_NAME": "TECHSAT 1B (GO-32)", "OBJECT_ID": "1998-043D", "EPOCH": "2025-12-04T13:23:55.365216", "MEAN_MOTION": 14.24373417, "ECCENTRICITY": 0.00022125, "INCLINATION": 98.9913, "RA_OF_ASC_NODE": 321.5819, "ARG_OF_PERICENTER": 70.8607, "MEAN_ANOMALY": 289.281, "EPHEMERIS_TYPE": 0, "CLASSIFICATION_TYPE": "U", "NORAD_CAT_ID": 25397, "ELEMENT_SET_NO": 999, "REV_AT_EPOCH": 42362, "BSTAR": 9.8435847e-05, "MEAN_MOTION_DOT": 1.81e-06, "MEAN_MOTION_DDOT": 0}, "tle": {"line1": "1 25397U 98043D   25338.55827969  .00000181  00000+0  98436-4 0  9995", "line2": "2 25397  98.9913 321.5819 0002212  70.8607 289.2810 14.24373417423624"}}, "geometry": {"type": "Point", "coordinates": [-28.292078765261973, -47.00228453827547]}}, {"type": "Feature", "properties": {"norad_id": 25504, "name": "SCD 2", "group": "resource", "lat": 14.205275334965009, "lon": -22.670353186918586, "alt_km": 735.6316605614784, "timestamp": "2025-12-04T21:36:15.530687+00:00", "meta": {"OBJECT_NAME": "SCD 2", "OBJECT_ID": "1998-060A", "EPOCH": "2025-12-03T07:34:14.746944", "MEAN_MOTION": 14.45414838, "ECCENTRICITY": 0.0016689, "INCLINATION": 24.9937, "RA_OF_ASC_NODE": 200.0088, "ARG_OF_PERICENTER": 212.8278, "MEAN_ANOMALY": 308.9112, "EPHEMERIS_TYPE": 0, "CLASSIFICATION_TYPE": "U", "NORAD_CAT_ID": 25504, "ELEMENT_SET_NO": 999, "REV_AT_EPOCH": 43195, "BSTAR": 0.00010911, "MEAN_MOTION_DOT": 5.73e-06, "MEAN_MOTION_DDOT": 0}, "tle": {"line1": "1 25504U 98060A   25337.31544846  .00000573  00000+0  10911-3 0  9993", "line2": "2 25504  24.9937 200.0088 0016689 212.8278 308.9112 14.45414838431958"}}, "geometry": {"type": "Point", "coordinates": [-22.670353186918586, 14.205275334965009]}}, {"type": "Feature", "properties": {"norad_id": 25757, "name": "DLR-TUBSAT", "group": "resource", "lat": 75.11610890015372, "lon": 178.14176404138334, "alt_km": 714.8886087247447, "timestamp": "2025-12-04T21:36:15.530700+00:00", "meta": {"OBJECT_NAME": "DLR-TUBSAT", "OBJECT_ID": "1999-029B", "EPOCH": "2025-12-04T11:12:50.393088", "MEAN_MOTION": 14.52352831, "ECCENTRICITY": 0.00134473, "INCLINATION": 98.6556, "RA_OF_ASC_NODE": 322.726, "ARG_OF_PERICENTER": 218.8178, "MEAN_ANOMALY": 141.2052, "EPHEMERIS_TYPE": 0, "CLASSIFICATION_TYPE": "U", "NORAD_CAT_ID": 25757, "ELEMENT_SET_NO": 999, "REV_AT_EPOCH": 40498, "BSTAR": 8.498889e-05, "MEAN_MOTION_DOT": 2.98e-06, "MEAN_MOTION_DDOT": 0}, "tle": {"line1": "1 25757U 99029B   25338.46724992  .00000298  00000+0  84989-4 0  9999", "line2": "2 25757  98.6556 322.7260 0013447 218.8178 141.2052 14.52352831404987"}}, "geometry": {"type": "Point", "coordinates": [178.14176404138334, 75.11610890015372]}}, {"type": "Feature", "properties": {"norad_id": 25994, "name": "TERRA", "group": "resource", "lat": -73.48958074663258, "lon": 59.1019249839839, "alt_km": 699.8599022099588, "timestamp": "2025-12-04T21:36:15.530713+00:00", "meta": {"OBJECT_NAME": "TERRA", "OBJECT_ID": "1999-068A", "EPOCH": "2025-12-04T15:53:53.425824", "MEAN_MOTION": 14.60938484, "ECCENTRICITY": 0.00034446, "INCLINATION": 97.976, "RA_OF_ASC_NODE": 30.6428, "ARG_OF_PERICENTER": 114.1052, "MEAN_ANOMALY": 0.721, "EPHEMERIS_TYPE": 0, "CLASSIFICATION_TYPE": "U", "NORAD_CAT_ID": 25994, "ELEMENT_SET_NO": 999, "REV_AT_EPOCH": 38120, "BSTAR": 0.00021596301, "MEAN_MOTION_DOT": 1.013e-05, "MEAN_MOTION_DDOT": 0}, "tle": {"line1": "1 25994U 99068A   25338.66242391  .00001013  00000+0  21596-3 0  9995", "line2": "2 25994  97.9760  30.6428 0003444 114.1052   0.7210 14.60938484381202"}}, "geometry": {"type": "Point", "coordinates": [59.1019249839839, -73.48958074663258]}}, {"type": "Feature", "properties": {"norad_id": 27004, "name": "MAROC-TUBSAT", "group": "resource", "lat": -51.29717494879764, "lon": 159.6531010987184, "alt_km": 992.901671436467, "timestamp": "2025-12-04T21:36:15.530726+00:00", "meta": {"OBJECT_NAME": "MAROC-TUBSAT", "OBJECT_ID": "2001-056D", "EPOCH": "2025-12-04T09:53:51.180288", "MEAN_MOTION": 13.70252291, "ECCENTRICITY": 0.0019097, "INCLINATION": 99.7911, "RA_OF_ASC_NODE": 146.7115, "ARG_OF_PERICENTER": 282.3103, "MEAN_ANOMALY": 140.3654, "EPHEMERIS_TYPE": 0, "CLASSIFICATION_TYPE": "U", "NORAD_CAT_ID": 27004, "ELEMENT_SET_NO": 999, "REV_AT_EPOCH": 19951, "BSTAR": 3.6872854e-05, "MEAN_MOTION_DOT": -1.4e-07, "MEAN_MOTION_DDOT": 0}, "tle": {"line1": "1 27004U 01056D   25338.41239792 -.00000014  00000+0  36873-4 0  9999", "line2": "2 27004  99.7911 146.7115 0019097 282.3103 140.3654 13.70252291199511"}}, "geometry": {"type": "Point", "coordinates": [159.6531010987184, -51.29717494879764]}}, {"type": "Feature", "properties": {"norad_id": 27424, "name": "AQUA", "group": "resource", "lat": 44.63213728920631, "lon": 128.04278790077998, "alt_km": 683.0926215315667, "timestamp": "2025-12-04T21:36:15.530739+00:00", "meta": {"OBJECT_NAME": "AQUA", "OBJECT_ID": "2002-022A", "EPOCH": "2025-12-04T15:12:40.881600", "MEAN_MOTION": 14.61779026, "ECCENTRICITY": 8.223e-05, "INCLINATION": 98.4023, "RA_OF_ASC_NODE": 299.3816, "ARG_OF_PERICENTER": 110.8111, "MEAN_ANOMALY": 62.9205, "EPHEMERIS_TYPE": 0, "CLASSIFICATION_TYPE": "U", "NORAD_CAT_ID": 27424, "ELEMENT_SET_NO": 999, "REV_AT_EPOCH": 25484, "BSTAR": 0.00052684853, "MEAN_MOTION_DOT": 2.58e-05, "MEAN_MOTION_DDOT": 0}, "tle": {"line1": "1 27424U 02022A   25338.63380650  .00002580  00000+0  52685-3 0  9990", "line2": "2 27424  98.4023 299.3816 0000822 110.8111  62.9205 14.61779026254840"}}, "geometry": {"type": "Point", "coordinates": [128.04278790077998, 44.63213728920631]}}, {"type": "Feature", "properties": {"norad_id": 28051, "name": "IRS-P6 (RESOURCESAT-1)", "group": "resource", "lat": 4.289255891830132, "lon": 19.049152526772158, "alt_km": 816.7236014549526, "timestamp": "2025-12-04T21:36:15.530750+00:00", "meta": {"OBJECT_NAME": "IRS-P6 (RESOURCESAT-1)", "OBJECT_ID": "2003-046A", "EPOCH": "2025-12-04T15:37:43.115808", "MEAN_MOTION": 14.36069027, "ECCENTRICITY": 0.00637264, "INCLINATION": 98.219, "RA_OF_ASC_NODE": 19.4328, "ARG_OF_PERICENTER": 205.0341, "MEAN_ANOMALY": 312.6931, "EPHEMERIS_TYPE": 0, "CLASSIFICATION_TYPE": "U", "NORAD_CAT_ID": 28051, "ELEMENT_SET_NO": 999, "REV_AT_EPOCH": 15260, "BSTAR": 0.00015801707, "MEAN_MOTION_DOT": 4.29e-06, "MEAN_MOTION_DDOT": 0}, "tle": {"line1": "1 28051U 03046A   25338.65119347  .00000429  00000+0  15802-3 0  9999", "line2": "2 28051  98.2190  19.4328 0063726 205.0341 312.6931 14.36069027152600"}}, "geometry": {"type": "Point", "coordinates": [19.049152526772158, 4.289255891830132]}}, {"type": "Feature", "properties": {"norad_id": 28220, "name": "SHIYAN-1 (SY-1)", "group": "resource", "lat": 12.197927279485008, "lon": -138.30265293037056, "alt_km": 487.88024761885663, "timestamp": "2025-12-04T21:36:15.530762+00:00", "meta": {"OBJECT_NAME": "SHIYAN-1 (SY-1)", "OBJECT_ID": "2004-012A", "EPOCH": "2025-12-04T14:35:08.938176", "MEAN_MOTION": 15.27821543, "ECCENTRICITY": 0.00062232, "INCLINATION": 97.8952, "RA_OF_ASC_NODE": 39.6687, "ARG_OF_PERICENTER": 355.6635, "MEAN_ANOMALY": 4.4548, "EPHEMERIS_TYPE": 0, "CLASSIFICATION_TYPE": "U", "NORAD_CAT_ID": 28220, "ELEMENT_SET_NO": 999, "REV_AT_EPOCH": 18132, "BSTAR": 0.0010040346, "MEAN_MOTION_DOT": 0.00027283, "MEAN_MOTION_DDOT": 0}, "tle": {"line1": "1 28220U 04012A   25338.60774234  .00027283  00000+0  10040-2 0  9993", "line2": "2 28220  97.8952  39.6687 0006223 355.6635   4.4548 15.27821543181329"}}, "geometry": {"type": "Point", "coordinates": [-138.30265293037056, 12.197927279485008]}}, {"type": "Feature", "properties": {"norad_id": 28376, "name": "AURA", "group": "resource", "lat": -68.15569183839506, "lon": -49.50642676598201, "alt_km": 698.2189490680648, "timestamp": "2025-12-04T21:36:15.530773+00:00", "meta": {"OBJECT_NAME": "AURA", "OBJECT_ID": "2004-026A", "EPOCH": "2025-12-04T13:42:15.152544", "MEAN_MOTION": 14.60916608, "ECCENTRICITY": 0.00011322, "INCLINATION": 98.3171, "RA_OF_ASC_NODE": 288.7602, "ARG_OF_PERICENTER": 92.7082, "MEAN_ANOMALY": 267.4248, "EPHEMERIS_TYPE": 0, "CLASSIFICATION_TYPE": "U", "NORAD_CAT_ID": 28376, "ELEMENT_SET_NO": 999, "REV_AT_EPOCH": 13779, "BSTAR": 0.00053420505, "MEAN_MOTION_DOT": 2.568e-05, "MEAN_MOTION_DDOT": 0}, "tle": {"line1": "1 28376U 04026A   25338.57100871  .00002568  00000+0  53421-3 0  9996", "line2": "2 28376  98.3171 288.7602 0001132  92.7082 267.4248 14.60916608137796"}}, "geometry": {"type": "Point", "coordinates": [-49.50642676598201, -68.15569183839506]}}]}